ORBCOMM FM06            
1 25118U 97084G   26190.63171980  .00000771  00000+0  24654-3 0  9996
2 25118  45.0146 304.6600 0001102 214.6774 160.3014 14.47619518497644
ORBCOMM FM04            
1 25159U 98007C   26192.01360084  .00000346  00000+0  16400-3 0  9994
2 25159 107.9632 218.4592 0041897 283.9924  75.6560 14.35779942480012
ORBCOMM FM19            
1 25415U 98046C   26192.17717476  .00000526  00000+0  21254-3 0  9993
2 25415  44.9929 129.5229 0003404  36.9057  95.2958 14.39537016460239
ORBCOMM FM20            
1 25416U 98046D   26191.21584404  .00000397  00000+0  17621-3 0  9990
2 25416  44.9930 142.2702 0001847 332.3533  27.7217 14.38095254460107
ORBCOMM FM27            
1 25481U 98053G   26191.09529278  .00000395  00000+0  17215-3 0  9991
2 25481  45.0036 226.5447 0002443 273.4638  86.5931 14.39179836453539
ORBCOMM FM32            
1 25982U 99065C   26191.99502810  .00000324  00000+0  15528-3 0  9990
2 25982  45.0156  60.5450 0005292 171.5965 188.4973 14.37164512390513
ORBCOMM FM109           
1 40086U 14040A   26191.45235944  .00000180  00000+0  74204-4 0  9991
2 40086  47.0044 341.4899 0001683 308.1085  51.9649 14.58869704637743
ORBCOMM FM110           
1 41182U 15081D   26192.21064198  .00000212  00000+0  80966-4 0  9999
2 41182  47.0010 247.8514 0003416 205.8234 154.2482 14.58915231561130
ORBCOMM FM118           
1 41183U 15081E   26191.62866870  .00000111  00000+0  59776-4 0  9994
2 41183  47.0030 250.9400 0002652 164.1790 195.9179 14.58901793561152
ORBCOMM FM112           
1 41184U 15081F   26191.29035671  .00000442  00000+0  12957-3 0  9991
2 41184  46.9976 160.9948 0003938 308.3890  51.6642 14.58933988562322
ORBCOMM FM113           
1 41185U 15081G   26191.26776814  .00000194  00000+0  77226-4 0  9995
2 41185  46.9994 161.4897 0002464 302.9877  57.0772 14.58878981562303
ORBCOMM FM108           
1 41187U 15081J   26192.05167343  .00000291  00000+0  97793-4 0  9995
2 41187  47.0051  69.3634 0002852 307.2078  52.8547 14.58906507563566
ORBCOMM FM117           
1 41188U 15081K   26192.01737147  .00000273  00000+0  94009-4 0  9994
2 41188  47.0015  68.1537 0003288 313.4287  46.6324 14.58893758563603
ORBCOMM FM116           
1 41189U 15081L   26190.62784344  .00000100  00000+0  57341-4 0  9998
2 41189  47.0010 164.5128 0001341 214.5781 145.5017 14.58902220562213
